{
  "type": "FeatureCollection",
  "features": [
    {
      "type": "Feature",
      "properties": {
        "norad_id": 30342,
        "name": "FENGYUN 1C DEB",
        "group": "fengyun-1c-debris",
        "lat": 72.58471023341409,
        "lon": 21.187123598715374,
        "alt_km": 839.332550669722,
        "timestamp": "2025-12-12T16:50:33.420399+00:00",
        "meta_object_name": "FENGYUN 1C DEB",
        "meta_object_id": "1999-025ABD",
        "meta_epoch": "2025-12-11T23:40:01.903296",
        "meta_mean_motion": 13.80042112,
        "meta_eccentricity": 0.0168282,
        "meta_inclination": 100.1955,
        "meta_ra_of_asc_node": 165.4072,
        "meta_arg_of_pericenter": 124.5769,
        "meta_mean_anomaly": 26.6101,
        "meta_ephemeris_type": 0,
        "meta_classification_type": "U",
        "meta_norad_cat_id": 30342,
        "meta_element_set_no": 999,
        "meta_rev_at_epoch": 94878,
        "meta_bstar": 0.00093474,
        "meta_mean_motion_dot": 1.031e-05,
        "meta_mean_motion_ddot": 0,
        "tle_line1": "1 30342U 99025ABD 25345.98613314  .00001031  00000+0  93474-3 0  9995",
        "tle_line2": "2 30342 100.1955 165.4072 0168282 124.5769  26.6101 13.80042112948785"
      },
      "geometry": {
        "type": "Point",
        "coordinates": [
          21.187123598715374,
          72.58471023341409
        ]
      }
    },
    {
      "type": "Feature",
      "properties": {
        "norad_id": 30344,
        "name": "FENGYUN 1C DEB",
        "group": "fengyun-1c-debris",
        "lat": -2.393493137595951,
        "lon": -111.61442570778209,
        "alt_km": 720.4741184737113,
        "timestamp": "2025-12-12T16:50:33.420409+00:00",
        "meta_object_name": "FENGYUN 1C DEB",
        "meta_object_id": "1999-025ABF",
        "meta_epoch": "2025-12-12T04:40:25.503168",
        "meta_mean_motion": 14.51740181,
        "meta_eccentricity": 0.00078584,
        "meta_inclination": 98.8193,
        "meta_ra_of_asc_node": 68.2255,
        "meta_arg_of_pericenter": 122.8392,
        "meta_mean_anomaly": 290.9987,
        "meta_ephemeris_type": 0,
        "meta_classification_type": "U",
        "meta_norad_cat_id": 30344,
        "meta_element_set_no": 999,
        "meta_rev_at_epoch": 98069,
        "meta_bstar": 0.0037258806,
        "meta_mean_motion_dot": 0.00014957,
        "meta_mean_motion_ddot": 0,
        "tle_line1": "1 30344U 99025ABF 25346.19473962  .00014957  00000+0  37259-2 0  9993",
        "tle_line2": "2 30344  98.8193  68.2255 0007858 122.8392 290.9987 14.51740181980695"
      },
      "geometry": {
        "type": "Point",
        "coordinates": [
          -111.61442570778209,
          -2.393493137595951
        ]
      }
    },
    {
      "type": "Feature",
      "properties": {
        "norad_id": 30345,
        "name": "FENGYUN 1C DEB",
        "group": "fengyun-1c-debris",
        "lat": -48.75880125237242,
        "lon": -144.25077111241586,
        "alt_km": 747.833753878921,
        "timestamp": "2025-12-12T16:50:33.420419+00:00",
        "meta_object_name": "FENGYUN 1C DEB",
        "meta_object_id": "1999-025ABG",
        "meta_epoch": "2025-12-12T02:27:16.831296",
        "meta_mean_motion": 14.41648116,
        "meta_eccentricity": 0.00172769,
        "meta_inclination": 98.9207,
        "meta_ra_of_asc_node": 45.4441,
        "meta_arg_of_pericenter": 244.2796,
        "meta_mean_anomaly": 115.6608,
        "meta_ephemeris_type": 0,
        "meta_classification_type": "U",
        "meta_norad_cat_id": 30345,
        "meta_element_set_no": 999,
        "meta_rev_at_epoch": 97764,
        "meta_bstar": 0.0030640071,
        "meta_mean_motion_dot": 9.963e-05,
        "meta_mean_motion_ddot": 0,
        "tle_line1": "1 30345U 99025ABG 25346.10227814  .00009963  00000+0  30640-2 0  9996",
        "tle_line2": "2 30345  98.9207  45.4441 0017276 244.2796 115.6608 14.41648116977647"
      },
      "geometry": {
        "type": "Point",
        "coordinates": [
          -144.25077111241586,
          -48.75880125237242
        ]
      }
    },
    {
      "type": "Feature",
      "properties": {
        "norad_id": 30346,
        "name": "FENGYUN 1C DEB",
        "group": "fengyun-1c-debris",
        "lat": -56.96199322445648,
        "lon": 97.19827964874631,
        "alt_km": 780.0611224602517,
        "timestamp": "2025-12-12T16:50:33.420429+00:00",
        "meta_object_name": "FENGYUN 1C DEB",
        "meta_object_id": "1999-025ABH",
        "meta_epoch": "2025-12-12T05:38:08.345184",
        "meta_mean_motion": 14.33886435,
        "meta_eccentricity": 0.00553975,
        "meta_inclination": 98.8082,
        "meta_ra_of_asc_node": 82.9298,
        "meta_arg_of_pericenter": 25.4207,
        "meta_mean_anomaly": 28.1835,
        "meta_ephemeris_type": 0,
        "meta_classification_type": "U",
        "meta_norad_cat_id": 30346,
        "meta_element_set_no": 999,
        "meta_rev_at_epoch": 97406,
        "meta_bstar": 0.0030665227,
        "meta_mean_motion_dot": 8.654e-05,
        "meta_mean_motion_ddot": 0,
        "tle_line1": "1 30346U 99025ABH 25346.23481881  .00008654  00000+0  30665-2 0  9990",
        "tle_line2": "2 30346  98.8082  82.9298 0055397  25.4207  28.1835 14.33886435974068"
      },
      "geometry": {
        "type": "Point",
        "coordinates": [
          97.19827964874631,
          -56.96199322445648
        ]
      }
    },
    {
      "type": "Feature",
      "properties": {
        "norad_id": 30347,
        "name": "FENGYUN 1C DEB",
        "group": "fengyun-1c-debris",
        "lat": -21.754910784204665,
        "lon": 173.9527140182595,
        "alt_km": 861.1709762682685,
        "timestamp": "2025-12-12T16:50:33.420439+00:00",
        "meta_object_name": "FENGYUN 1C DEB",
        "meta_object_id": "1999-025ABJ",
        "meta_epoch": "2025-12-12T07:27:08.839872",
        "meta_mean_motion": 13.92768413,
        "meta_eccentricity": 0.01506062,
        "meta_inclination": 98.3766,
        "meta_ra_of_asc_node": 170.2277,
        "meta_arg_of_pericenter": 34.9249,
        "meta_mean_anomaly": 143.9426,
        "meta_ephemeris_type": 0,
        "meta_classification_type": "U",
        "meta_norad_cat_id": 30347,
        "meta_element_set_no": 999,
        "meta_rev_at_epoch": 95954,
        "meta_bstar": 0.00017378939,
        "meta_mean_motion_dot": 2.09e-06,
        "meta_mean_motion_ddot": 0,
        "tle_line1": "1 30347U 99025ABJ 25346.31051898  .00000209  00000+0  17379-3 0  9997",
        "tle_line2": "2 30347  98.3766 170.2277 0150606  34.9249 143.9426 13.92768413959548"
      },
      "geometry": {
        "type": "Point",
        "coordinates": [
          173.9527140182595,
          -21.754910784204665
        ]
      }
    },
    {
      "type": "Feature",
      "properties": {
        "norad_id": 30348,
        "name": "FENGYUN 1C DEB",
        "group": "fengyun-1c-debris",
        "lat": -54.476359026832995,
        "lon": -111.16725911210915,
        "alt_km": 791.2484255471118,
        "timestamp": "2025-12-12T16:50:33.420450+00:00",
        "meta_object_name": "FENGYUN 1C DEB",
        "meta_object_id": "1999-025ABK",
        "meta_epoch": "2025-12-12T05:50:17.666592",
        "meta_mean_motion": 14.35094209,
        "meta_eccentricity": 0.00172144,
        "meta_inclination": 98.8618,
        "meta_ra_of_asc_node": 80.9851,
        "meta_arg_of_pericenter": 17.5521,
        "meta_mean_anomaly": 10.4523,
        "meta_ephemeris_type": 0,
        "meta_classification_type": "U",
        "meta_norad_cat_id": 30348,
        "meta_element_set_no": 999,
        "meta_rev_at_epoch": 97527,
        "meta_bstar": 0.003155786,
        "meta_mean_motion_dot": 8.984e-05,
        "meta_mean_motion_ddot": 0,
        "tle_line1": "1 30348U 99025ABK 25346.24326003  .00008984  00000+0  31558-2 0  9995",
        "tle_line2": "2 30348  98.8618  80.9851 0017214  17.5521  10.4523 14.35094209975279"
      },
      "geometry": {
        "type": "Point",
        "coordinates": [
          -111.16725911210915,
          -54.476359026832995
        ]
      }
    },
    {
      "type": "Feature",
      "properties": {
        "norad_id": 30349,
        "name": "FENGYUN 1C DEB",
        "group": "fengyun-1c-debris",
        "lat": -35.208232636685196,
        "lon": 123.02959520191071,
        "alt_km": 921.145849660008,
        "timestamp": "2025-12-12T16:50:33.420460+00:00",
        "meta_object_name": "FENGYUN 1C DEB",
        "meta_object_id": "1999-025ABL",
        "meta_epoch": "2025-12-11T21:21:35.070336",
        "meta_mean_motion": 14.11097069,
        "meta_eccentricity": 0.0089411,
        "meta_inclination": 98.5844,
        "meta_ra_of_asc_node": 308.3722,
        "meta_arg_of_pericenter": 14.6503,
        "meta_mean_anomaly": 39.7878,
        "meta_ephemeris_type": 0,
        "meta_classification_type": "U",
        "meta_norad_cat_id": 30349,
        "meta_element_set_no": 999,
        "meta_rev_at_epoch": 96219,
        "meta_bstar": 0.0034254,
        "meta_mean_motion_dot": 6.364e-05,
        "meta_mean_motion_ddot": 0,
        "tle_line1": "1 30349U 99025ABL 25345.88998924  .00006364  00000+0  34254-2 0  9998",
        "tle_line2": "2 30349  98.5844 308.3722 0089411  14.6503  39.7878 14.11097069962193"
      },
      "geometry": {
        "type": "Point",
        "coordinates": [
          123.02959520191071,
          -35.208232636685196
        ]
      }
    }
  ]
}